ONEWEB-0720             
1 55835U 23029AR  25294.67970979  .00000048  00000+0  88358-4 0  9995
2 55835  87.9248 352.4404 0001992 110.3862 249.7485 13.19724847127386
ONEWEB-0537             
1 56046U 23043A   25294.41214484  .00000112  00000+0  25975-3 0  9997
2 56046  87.8992 276.3338 0002040  81.9281 278.2081 13.16593864127546
ONEWEB-0538             
1 56047U 23043B   25294.48181937  .00000130  00000+0  30737-3 0  9993
2 56047  87.8979 276.3281 0002160  88.8823 271.2555 13.16594002127566
ONEWEB-0546             
1 56048U 23043C   25294.77313872  .00000081  00000+0  17779-3 0  9997
2 56048  87.8991 276.2557 0002269  70.0722 290.0653 13.16595088127593
ONEWEB-0547             
1 56049U 23043D   25294.80522449  .00000754  00000+0  17928-2 0  9996
2 56049  87.9170 291.5344 0001987  92.2132 267.9229 13.21886294126730
ONEWEB-0548             
1 56050U 23043E   25294.41848552  .00000002  00000+0 -28470-4 0  9994
2 56050  87.8975 276.3420 0001401  83.5169 276.6122 13.16594413127546
ONEWEB-0549             
1 56051U 23043F   25294.79775010  .00000087  00000+0  17952-3 0  9998
2 56051  87.9166 291.5520 0002103  95.3809 264.7564 13.21768972126739
ONEWEB-0550             
1 56052U 23043G   25294.78463174  .00000008  00000+0 -12830-4 0  9998
2 56052  87.9167 291.5489 0001736  87.2065 272.9267 13.21814854126732
ONEWEB-0551             
1 56053U 23043H   25294.79157759  .00000182  00000+0  45014-3 0  9990
2 56053  87.8965 306.8112 0001947  99.4505 260.6845 13.15548925125055
ONEWEB-0552             
1 56054U 23043J   25294.77960324  .00002164  00000+0  52155-2 0  9994
2 56054  87.9166 291.5589 0001925  98.4508 261.6844 13.21708546126736
ONEWEB-0553             
1 56055U 23043K   25294.85547280 -.00000065  00000+0 -20400-3 0  9995
2 56055  87.8976 276.2516 0001932  75.3700 284.7645 13.16594162127615
ONEWEB-0554             
1 56056U 23043L   25294.76678510 -.00000545  00000+0 -14588-2 0  9999
2 56056  87.8966 276.2899 0001685  84.2502 275.8821 13.16596276127584
ONEWEB-0555             
1 56057U 23043M   25294.42481449  .00000020  00000+0  18805-4 0  9990
2 56057  87.8982 276.3324 0002066  70.8812 289.2543 13.16595654127541
ONEWEB-0557             
1 56058U 23043N   25294.43905335 -.00000007  00000+0 -51177-4 0  9993
2 56058  87.8974 276.3442 0001362  42.2953 317.8283 13.16595691127541
ONEWEB-0558             
1 56059U 23043P   25294.77305262  .00001204  00000+0  28873-2 0  9997
2 56059  87.9164 291.5546 0002194  98.9454 261.1928 13.21724204126744
ONEWEB-0559             
1 56060U 23043Q   25294.76157006  .00000034  00000+0  51128-4 0  9990
2 56060  87.9165 291.5496 0001941  99.2610 260.8743 13.21760380126755
ONEWEB-0566             
1 56061U 23043R   25294.52790041 -.00000017  00000+0 -71970-4 0  9997
2 56061  87.9165 291.5939 0002017  99.1607 260.9756 13.21782238126704
