[{"OBJECT_NAME":"ONEWEB-0720","OBJECT_ID":"2023-029AR","EPOCH":"2025-10-21T16:18:46.925856","MEAN_MOTION":13.19724847,"ECCENTRICITY":0.0001992,"INCLINATION":87.9248,"RA_OF_ASC_NODE":352.4404,"ARG_OF_PERICENTER":110.3862,"MEAN_ANOMALY":249.7485,"EPHEMERIS_TYPE":0,"CLASSIFICATION_TYPE":"U","NORAD_CAT_ID":55835,"ELEMENT_SET_NO":999,"REV_AT_EPOCH":12738,"BSTAR":8.8358e-5,"MEAN_MOTION_DOT":4.8e-7,"MEAN_MOTION_DDOT":0},{"OBJECT_NAME":"ONEWEB-0537","OBJECT_ID":"2023-043A","EPOCH":"2025-10-21T09:53:29.314176","MEAN_MOTION":13.16593864,"ECCENTRICITY":0.000204,"INCLINATION":87.8992,"RA_OF_ASC_NODE":276.3338,"ARG_OF_PERICENTER":81.9281,"MEAN_ANOMALY":278.2081,"EPHEMERIS_TYPE":0,"CLASSIFICATION_TYPE":"U","NORAD_CAT_ID":56046,"ELEMENT_SET_NO":999,"REV_AT_EPOCH":12754,"BSTAR":0.00025975385,"MEAN_MOTION_DOT":1.12e-6,"MEAN_MOTION_DDOT":0},{"OBJECT_NAME":"ONEWEB-0538","OBJECT_ID":"2023-043B","EPOCH":"2025-10-21T11:33:49.193568","MEAN_MOTION":13.16594002,"ECCENTRICITY":0.000216,"INCLINATION":87.8979,"RA_OF_ASC_NODE":276.3281,"ARG_OF_PERICENTER":88.8823,"MEAN_ANOMALY":271.2555,"EPHEMERIS_TYPE":0,"CLASSIFICATION_TYPE":"U","NORAD_CAT_ID":56047,"ELEMENT_SET_NO":999,"REV_AT_EPOCH":12756,"BSTAR":0.00030737,"MEAN_MOTION_DOT":1.3e-6,"MEAN_MOTION_DDOT":0},{"OBJECT_NAME":"ONEWEB-0546","OBJECT_ID":"2023-043C","EPOCH":"2025-10-21T18:33:19.185408","MEAN_MOTION":13.16595088,"ECCENTRICITY":0.0002269,"INCLINATION":87.8991,"RA_OF_ASC_NODE":276.2557,"ARG_OF_PERICENTER":70.0722,"MEAN_ANOMALY":290.0653,"EPHEMERIS_TYPE":0,"CLASSIFICATION_TYPE":"U","NORAD_CAT_ID":56048,"ELEMENT_SET_NO":999,"REV_AT_EPOCH":12759,"BSTAR":0.00017779,"MEAN_MOTION_DOT":8.1e-7,"MEAN_MOTION_DDOT":0},{"OBJECT_NAME":"ONEWEB-0547","OBJECT_ID":"2023-043D","EPOCH":"2025-10-21T19:19:31.395936","MEAN_MOTION":13.21886294,"ECCENTRICITY":0.0001987,"INCLINATION":87.917,"RA_OF_ASC_NODE":291.5344,"ARG_OF_PERICENTER":92.2132,"MEAN_ANOMALY":267.9229,"EPHEMERIS_TYPE":0,"CLASSIFICATION_TYPE":"U","NORAD_CAT_ID":56049,"ELEMENT_SET_NO":999,"REV_AT_EPOCH":12673,"BSTAR":0.0017928,"MEAN_MOTION_DOT":7.54e-6,"MEAN_MOTION_DDOT":0},{"OBJECT_NAME":"ONEWEB-0548","OBJECT_ID":"2023-043E","EPOCH":"2025-10-21T10:02:37.148928","MEAN_MOTION":13.16594413,"ECCENTRICITY":0.00014012,"INCLINATION":87.8975,"RA_OF_ASC_NODE":276.342,"ARG_OF_PERICENTER":83.5169,"MEAN_ANOMALY":276.6122,"EPHEMERIS_TYPE":0,"CLASSIFICATION_TYPE":"U","NORAD_CAT_ID":56050,"ELEMENT_SET_NO":999,"REV_AT_EPOCH":12754,"BSTAR":-2.8470271e-5,"MEAN_MOTION_DOT":2.0e-8,"MEAN_MOTION_DDOT":0},{"OBJECT_NAME":"ONEWEB-0549","OBJECT_ID":"2023-043F","EPOCH":"2025-10-21T19:08:45.608640","MEAN_MOTION":13.21768972,"ECCENTRICITY":0.0002103,"INCLINATION":87.9166,"RA_OF_ASC_NODE":291.552,"ARG_OF_PERICENTER":95.3809,"MEAN_ANOMALY":264.7564,"EPHEMERIS_TYPE":0,"CLASSIFICATION_TYPE":"U","NORAD_CAT_ID":56051,"ELEMENT_SET_NO":999,"REV_AT_EPOCH":12673,"BSTAR":0.00017952,"MEAN_MOTION_DOT":8.7e-7,"MEAN_MOTION_DDOT":0},{"OBJECT_NAME":"ONEWEB-0550","OBJECT_ID":"2023-043G","EPOCH":"2025-10-21T18:49:52.182336","MEAN_MOTION":13.21814854,"ECCENTRICITY":0.0001736,"INCLINATION":87.9167,"RA_OF_ASC_NODE":291.5489,"ARG_OF_PERICENTER":87.2065,"MEAN_ANOMALY":272.9267,"EPHEMERIS_TYPE":0,"CLASSIFICATION_TYPE":"U","NORAD_CAT_ID":56052,"ELEMENT_SET_NO":999,"REV_AT_EPOCH":12673,"BSTAR":-1.283e-5,"MEAN_MOTION_DOT":8.0e-8,"MEAN_MOTION_DDOT":0},{"OBJECT_NAME":"ONEWEB-0551","OBJECT_ID":"2023-043H","EPOCH":"2025-10-21T18:59:52.303776","MEAN_MOTION":13.15548925,"ECCENTRICITY":0.0001947,"INCLINATION":87.8965,"RA_OF_ASC_NODE":306.8112,"ARG_OF_PERICENTER":99.4505,"MEAN_ANOMALY":260.6845,"EPHEMERIS_TYPE":0,"CLASSIFICATION_TYPE":"U","NORAD_CAT_ID":56053,"ELEMENT_SET_NO":999,"REV_AT_EPOCH":12505,"BSTAR":0.00045014,"MEAN_MOTION_DOT":1.82e-6,"MEAN_MOTION_DDOT":0},{"OBJECT_NAME":"ONEWEB-0552","OBJECT_ID":"2023-043J","EPOCH":"2025-10-21T18:42:37.719936","MEAN_MOTION":13.21708546,"ECCENTRICITY":0.0001925,"INCLINATION":87.9166,"RA_OF_ASC_NODE":291.5589,"ARG_OF_PERICENTER":98.4508,"MEAN_ANOMALY":261.6844,"EPHEMERIS_TYPE":0,"CLASSIFICATION_TYPE":"U","NORAD_CAT_ID":56054,"ELEMENT_SET_NO":999,"REV_AT_EPOCH":12673,"BSTAR":0.0052155,"MEAN_MOTION_DOT":2.164e-5,"MEAN_MOTION_DDOT":0},{"OBJECT_NAME":"ONEWEB-0553","OBJECT_ID":"2023-043K","EPOCH":"2025-10-21T20:31:52.849920","MEAN_MOTION":13.16594162,"ECCENTRICITY":0.0001932,"INCLINATION":87.8976,"RA_OF_ASC_NODE":276.2516,"ARG_OF_PERICENTER":75.37,"MEAN_ANOMALY":284.7645,"EPHEMERIS_TYPE":0,"CLASSIFICATION_TYPE":"U","NORAD_CAT_ID":56055,"ELEMENT_SET_NO":999,"REV_AT_EPOCH":12761,"BSTAR":-0.000204,"MEAN_MOTION_DOT":-6.5e-7,"MEAN_MOTION_DDOT":0},{"OBJECT_NAME":"ONEWEB-0554","OBJECT_ID":"2023-043L","EPOCH":"2025-10-21T18:24:10.232640","MEAN_MOTION":13.16596276,"ECCENTRICITY":0.0001685,"INCLINATION":87.8966,"RA_OF_ASC_NODE":276.2899,"ARG_OF_PERICENTER":84.2502,"MEAN_ANOMALY":275.8821,"EPHEMERIS_TYPE":0,"CLASSIFICATION_TYPE":"U","NORAD_CAT_ID":56056,"ELEMENT_SET_NO":999,"REV_AT_EPOCH":12758,"BSTAR":-0.0014588,"MEAN_MOTION_DOT":-5.45e-6,"MEAN_MOTION_DDOT":0},{"OBJECT_NAME":"ONEWEB-0555","OBJECT_ID":"2023-043M","EPOCH":"2025-10-21T10:11:43.971936","MEAN_MOTION":13.16595654,"ECCENTRICITY":0.00020663,"INCLINATION":87.8982,"RA_OF_ASC_NODE":276.3324,"ARG_OF_PERICENTER":70.8812,"MEAN_ANOMALY":289.2543,"EPHEMERIS_TYPE":0,"CLASSIFICATION_TYPE":"U","NORAD_CAT_ID":56057,"ELEMENT_SET_NO":999,"REV_AT_EPOCH":12754,"BSTAR":1.8804504e-5,"MEAN_MOTION_DOT":2.0e-7,"MEAN_MOTION_DDOT":0},{"OBJECT_NAME":"ONEWEB-0557","OBJECT_ID":"2023-043N","EPOCH":"2025-10-21T10:32:14.209440","MEAN_MOTION":13.16595691,"ECCENTRICITY":0.00013624,"INCLINATION":87.8974,"RA_OF_ASC_NODE":276.3442,"ARG_OF_PERICENTER":42.2953,"MEAN_ANOMALY":317.8283,"EPHEMERIS_TYPE":0,"CLASSIFICATION_TYPE":"U","NORAD_CAT_ID":56058,"ELEMENT_SET_NO":999,"REV_AT_EPOCH":12754,"BSTAR":-5.1177416e-5,"MEAN_MOTION_DOT":-7.0e-8,"MEAN_MOTION_DDOT":0},{"OBJECT_NAME":"ONEWEB-0558","OBJECT_ID":"2023-043P","EPOCH":"2025-10-21T18:33:11.746368","MEAN_MOTION":13.21724204,"ECCENTRICITY":0.0002194,"INCLINATION":87.9164,"RA_OF_ASC_NODE":291.5546,"ARG_OF_PERICENTER":98.9454,"MEAN_ANOMALY":261.1928,"EPHEMERIS_TYPE":0,"CLASSIFICATION_TYPE":"U","NORAD_CAT_ID":56059,"ELEMENT_SET_NO":999,"REV_AT_EPOCH":12674,"BSTAR":0.0028873,"MEAN_MOTION_DOT":1.204e-5,"MEAN_MOTION_DDOT":0},{"OBJECT_NAME":"ONEWEB-0559","OBJECT_ID":"2023-043Q","EPOCH":"2025-10-21T18:16:39.653184","MEAN_MOTION":13.2176038,"ECCENTRICITY":0.0001941,"INCLINATION":87.9165,"RA_OF_ASC_NODE":291.5496,"ARG_OF_PERICENTER":99.261,"MEAN_ANOMALY":260.8743,"EPHEMERIS_TYPE":0,"CLASSIFICATION_TYPE":"U","NORAD_CAT_ID":56060,"ELEMENT_SET_NO":999,"REV_AT_EPOCH":12675,"BSTAR":5.1128e-5,"MEAN_MOTION_DOT":3.4e-7,"MEAN_MOTION_DDOT":0},{"OBJECT_NAME":"ONEWEB-0566","OBJECT_ID":"2023-043R","EPOCH":"2025-10-21T12:40:10.595424","MEAN_MOTION":13.21782238,"ECCENTRICITY":0.0002017,"INCLINATION":87.9165,"RA_OF_ASC_NODE":291.5939,"ARG_OF_PERICENTER":99.1607,"MEAN_ANOMALY":260.9756,"EPHEMERIS_TYPE":0,"CLASSIFICATION_TYPE":"U","NORAD_CAT_ID":56061,"ELEMENT_SET_NO":999,"REV_AT_EPOCH":12670,"BSTAR":-7.197e-5,"MEAN_MOTION_DOT":-1.7e-7,"MEAN_MOTION_DDOT":0}]
